start=new Date('2022-12-17T00:00:00.000Z').valueOf();
sats=[{"CENTER_NAME":"EARTH","REV_AT_EPOCH":"5999","TLE_LINE2":"2 50162  53.2170   6.7052 0003778  62.6010 297.5385 15.50746041 59998","GP_ID":"220603064","OBJECT_ID":"2021-125G","ARG_OF_PERICENTER":"62.6010","OBJECT_NAME":"STARLINK-3303","RA_OF_ASC_NODE":"6.7052","MEAN_MOTION_DDOT":"0.0000000000000","ELEMENT_SET_NO":"999","CLASSIFICATION_TYPE":"U","MEAN_MOTION_DOT":"0.00026970","OBJECT_TYPE":"PAYLOAD","SEMIMAJOR_AXIS":"6792.684","EPHEMERIS_TYPE":"0","PERIAPSIS":"411.982","FILE":"3703420","REF_FRAME":"TEME","EPOCH":"2022-12-16T11:23:14.461152","RCS_SIZE":"LARGE","SITE":"AFWTR","NORAD_CAT_ID":"50162","MEAN_ANOMALY":"297.5385","TIME_SYSTEM":"UTC","MEAN_MOTION":"15.50746041","COUNTRY_CODE":"US","INCLINATION":"53.2170","MEAN_ELEMENT_THEORY":"SGP4","LAUNCH_DATE":"2021-12-18","APOAPSIS":"417.115","ECCENTRICITY":"0.00037780","BSTAR":"0.00046703000000","TLE_LINE1":"1 50162U 21125G   22350.47447293  .00026970  00000-0  46703-3 0  9994","PERIOD":"92.859","DECAY_DATE":null},{"CLASSIFICATION_TYPE":"U","MEAN_MOTION_DDOT":"0.0000000000000","ELEMENT_SET_NO":"999","RA_OF_ASC_NODE":"131.2939","OBJECT_NAME":"STARLINK-3306","ARG_OF_PERICENTER":"46.4686","REV_AT_EPOCH":"5876","CENTER_NAME":"EARTH","OBJECT_ID":"2021-125H","GP_ID":"220663238","TLE_LINE2":"2 50163  53.2172 131.2939 0002714  46.4686 313.6531 15.08838509 58768","FILE":"3705029","REF_FRAME":"TEME","PERIAPSIS":"537.872","EPHEMERIS_TYPE":"0","SEMIMAJOR_AXIS":"6917.885","OBJECT_TYPE":"PAYLOAD","MEAN_MOTION_DOT":"0.00000291","COUNTRY_CODE":"US","MEAN_MOTION":"15.08838509","EPOCH":"2022-12-16T19:34:03.253152","SITE":"AFWTR","NORAD_CAT_ID":"50163","MEAN_ANOMALY":"313.6531","TIME_SYSTEM":"UTC","RCS_SIZE":"LARGE","PERIOD":"95.438","DECAY_DATE":null,"BSTAR":"0.00003644000000","ECCENTRICITY":"0.00027140","TLE_LINE1":"1 50163U 21125H   22350.81531543  .00000291  00000-0  36440-4 0  9991","LAUNCH_DATE":"2021-12-18","MEAN_ELEMENT_THEORY":"SGP4","APOAPSIS":"541.627","INCLINATION":"53.2172"},{"SEMIMAJOR_AXIS":"6917.851","OBJECT_TYPE":"PAYLOAD","MEAN_MOTION_DOT":"-0.00003888","EPHEMERIS_TYPE":"0","PERIAPSIS":"537.716","REF_FRAME":"TEME","FILE":"3705029","GP_ID":"220664491","OBJECT_ID":"2021-125K","TLE_LINE2":"2 50165  53.2161 151.0077 0002892  50.0606 310.0640 15.08849489 58548","REV_AT_EPOCH":"5854","CENTER_NAME":"EARTH","ARG_OF_PERICENTER":"50.0606","OBJECT_NAME":"STARLINK-3298","RA_OF_ASC_NODE":"151.0077","CLASSIFICATION_TYPE":"U","MEAN_MOTION_DDOT":"0.0000000000000","ELEMENT_SET_NO":"999","INCLINATION":"53.2161","APOAPSIS":"541.717","LAUNCH_DATE":"2021-12-18","MEAN_ELEMENT_THEORY":"SGP4","TLE_LINE1":"1 50165U 21125K   22350.88244322 -.00003888  00000-0 -22617-3 0  9993","BSTAR":"-0.00022617000000","ECCENTRICITY":"0.00028920","DECAY_DATE":null,"PERIOD":"95.437","MEAN_ANOMALY":"310.0640","SITE":"AFWTR","NORAD_CAT_ID":"50165","TIME_SYSTEM":"UTC","RCS_SIZE":"LARGE","EPOCH":"2022-12-16T21:10:43.094208","MEAN_MOTION":"15.08849489","COUNTRY_CODE":"US"},{"INCLINATION":"53.2161","MEAN_ELEMENT_THEORY":"SGP4","LAUNCH_DATE":"2021-12-18","APOAPSIS":"542.055","BSTAR":"-0.00002379900000","ECCENTRICITY":"0.00033460","TLE_LINE1":"1 50166U 21125L   22350.83919726 -.00000668  00000-0 -23799-4 0  9992","PERIOD":"95.437","DECAY_DATE":null,"EPOCH":"2022-12-16T20:08:26.643264","NORAD_CAT_ID":"50166","SITE":"AFWTR","MEAN_ANOMALY":"305.9046","TIME_SYSTEM":"UTC","RCS_SIZE":"LARGE","MEAN_MOTION":"15.08841700","COUNTRY_CODE":"US","SEMIMAJOR_AXIS":"6917.875","OBJECT_TYPE":"PAYLOAD","MEAN_MOTION_DOT":"-0.00000668","EPHEMERIS_TYPE":"0","PERIAPSIS":"537.425","FILE":"3705029","REF_FRAME":"TEME","REV_AT_EPOCH":"5862","CENTER_NAME":"EARTH","OBJECT_ID":"2021-125L","GP_ID":"220664226","TLE_LINE2":"2 50166  53.2161 141.1884 0003346  54.2256 305.9046 15.08841700 58627","ARG_OF_PERICENTER":"54.2256","OBJECT_NAME":"STARLINK-3305","RA_OF_ASC_NODE":"141.1884","CLASSIFICATION_TYPE":"U","ELEMENT_SET_NO":"999","MEAN_MOTION_DDOT":"0.0000000000000"},{"OBJECT_NAME":"STARLINK-3271","ARG_OF_PERICENTER":"52.5509","TLE_LINE2":"2 50167  53.2138 151.0325 0002464  52.5509 307.5707 15.08844871 58493","GP_ID":"220662993","OBJECT_ID":"2021-125M","CENTER_NAME":"EARTH","REV_AT_EPOCH":"5849","MEAN_MOTION_DDOT":"0.0000000000000","ELEMENT_SET_NO":"999","CLASSIFICATION_TYPE":"U","RA_OF_ASC_NODE":"151.0325","EPHEMERIS_TYPE":"0","OBJECT_TYPE":"PAYLOAD","MEAN_MOTION_DOT":"0.00000747","SEMIMAJOR_AXIS":"6917.866","REF_FRAME":"TEME","FILE":"3705029","PERIAPSIS":"538.026","RCS_SIZE":"LARGE","NORAD_CAT_ID":"50167","SITE":"AFWTR","MEAN_ANOMALY":"307.5707","TIME_SYSTEM":"UTC","EPOCH":"2022-12-16T21:00:06.389280","COUNTRY_CODE":"US","MEAN_MOTION":"15.08844871","APOAPSIS":"541.435","MEAN_ELEMENT_THEORY":"SGP4","LAUNCH_DATE":"2021-12-18","INCLINATION":"53.2138","DECAY_DATE":null,"PERIOD":"95.437","TLE_LINE1":"1 50167U 21125M   22350.87507395  .00000747  00000-0  65039-4 0  9991","ECCENTRICITY":"0.00024640","BSTAR":"0.00006503900000"},{"INCLINATION":"53.2163","APOAPSIS":"542.107","MEAN_ELEMENT_THEORY":"SGP4","LAUNCH_DATE":"2021-12-18","TLE_LINE1":"1 50168U 21125N   22350.83551857 -.00000202  00000-0  54570-5 0  9996","ECCENTRICITY":"0.00034320","BSTAR":"0.00000545700000","DECAY_DATE":null,"PERIOD":"95.437","RCS_SIZE":"LARGE","SITE":"AFWTR","NORAD_CAT_ID":"50168","MEAN_ANOMALY":"308.0586","TIME_SYSTEM":"UTC","EPOCH":"2022-12-16T20:03:08.804448","MEAN_MOTION":"15.08844272","COUNTRY_CODE":"US","OBJECT_TYPE":"PAYLOAD","MEAN_MOTION_DOT":"-0.00000202","SEMIMAJOR_AXIS":"6917.867","EPHEMERIS_TYPE":"0","PERIAPSIS":"537.358","REF_FRAME":"TEME","FILE":"3705029","TLE_LINE2":"2 50168  53.2163 141.2059 0003432  52.0716 308.0586 15.08844272 58630","GP_ID":"220663739","OBJECT_ID":"2021-125N","CENTER_NAME":"EARTH","REV_AT_EPOCH":"5863","ARG_OF_PERICENTER":"52.0716","OBJECT_NAME":"STARLINK-3296","RA_OF_ASC_NODE":"141.2059","MEAN_MOTION_DDOT":"0.0000000000000","ELEMENT_SET_NO":"999","CLASSIFICATION_TYPE":"U"},{"RA_OF_ASC_NODE":"141.3345","MEAN_MOTION_DDOT":"0.0000000000000","ELEMENT_SET_NO":"999","CLASSIFICATION_TYPE":"U","CENTER_NAME":"EARTH","REV_AT_EPOCH":"5863","TLE_LINE2":"2 50169  53.2153 141.3345 0003043  39.5814 320.5400 15.08836189 58638","GP_ID":"220663992","OBJECT_ID":"2021-125P","OBJECT_NAME":"STARLINK-3301","ARG_OF_PERICENTER":"39.5814","PERIAPSIS":"537.652","FILE":"3705029","REF_FRAME":"TEME","OBJECT_TYPE":"PAYLOAD","MEAN_MOTION_DOT":"0.00001632","SEMIMAJOR_AXIS":"6917.892","EPHEMERIS_TYPE":"0","MEAN_MOTION":"15.08836189","COUNTRY_CODE":"US","EPOCH":"2022-12-16T19:20:45.623904","RCS_SIZE":"LARGE","NORAD_CAT_ID":"50169","SITE":"AFWTR","MEAN_ANOMALY":"320.5400","TIME_SYSTEM":"UTC","ECCENTRICITY":"0.00030430","BSTAR":"0.00012067000000","TLE_LINE1":"1 50169U 21125P   22350.80608361  .00001632  00000-0  12067-3 0  9997","PERIOD":"95.438","DECAY_DATE":null,"INCLINATION":"53.2153","LAUNCH_DATE":"2021-12-18","MEAN_ELEMENT_THEORY":"SGP4","APOAPSIS":"541.862"},{"FILE":"3705029","REF_FRAME":"TEME","PERIAPSIS":"537.360","EPHEMERIS_TYPE":"0","SEMIMAJOR_AXIS":"6917.909","OBJECT_TYPE":"PAYLOAD","MEAN_MOTION_DOT":"-0.00000437","CLASSIFICATION_TYPE":"U","ELEMENT_SET_NO":"999","MEAN_MOTION_DDOT":"0.0000000000000","RA_OF_ASC_NODE":"141.2474","ARG_OF_PERICENTER":"52.3147","OBJECT_NAME":"STARLINK-3245","REV_AT_EPOCH":"5862","CENTER_NAME":"EARTH","OBJECT_ID":"2021-125Q","GP_ID":"220664727","TLE_LINE2":"2 50170  53.2179 141.2474 0003490  52.3147 307.8161 15.08830645 58620","PERIOD":"95.438","DECAY_DATE":null,"BSTAR":"-0.00000931760000","ECCENTRICITY":"0.00034900","TLE_LINE1":"1 50170U 21125Q   22350.82816397 -.00000437  00000-0 -93176-5 0  9997","LAUNCH_DATE":"2021-12-18","MEAN_ELEMENT_THEORY":"SGP4","APOAPSIS":"542.188","INCLINATION":"53.2179","COUNTRY_CODE":"US","MEAN_MOTION":"15.08830645","EPOCH":"2022-12-16T19:52:33.367008","NORAD_CAT_ID":"50170","SITE":"AFWTR","MEAN_ANOMALY":"307.8161","TIME_SYSTEM":"UTC","RCS_SIZE":"LARGE"},{"RA_OF_ASC_NODE":"141.1786","CLASSIFICATION_TYPE":"U","ELEMENT_SET_NO":"999","MEAN_MOTION_DDOT":"0.0000000000000","REV_AT_EPOCH":"5863","CENTER_NAME":"EARTH","OBJECT_ID":"2021-125R","GP_ID":"220663494","TLE_LINE2":"2 50171  53.2164 141.1786 0003119  50.0281 310.0985 15.08828487 58634","OBJECT_NAME":"STARLINK-3286","ARG_OF_PERICENTER":"50.0281","PERIAPSIS":"537.623","FILE":"3705029","REF_FRAME":"TEME","SEMIMAJOR_AXIS":"6917.916","MEAN_MOTION_DOT":"0.00001325","OBJECT_TYPE":"PAYLOAD","EPHEMERIS_TYPE":"0","MEAN_MOTION":"15.08828487","COUNTRY_CODE":"US","EPOCH":"2022-12-16T20:13:44.914080","SITE":"AFWTR","NORAD_CAT_ID":"50171","MEAN_ANOMALY":"310.0985","TIME_SYSTEM":"UTC","RCS_SIZE":"LARGE","BSTAR":"0.00010140000000","ECCENTRICITY":"0.00031190","TLE_LINE1":"1 50171U 21125R   22350.84288095  .00001325  00000-0  10140-3 0  9991","PERIOD":"95.438","DECAY_DATE":null,"INCLINATION":"53.2164","MEAN_ELEMENT_THEORY":"SGP4","LAUNCH_DATE":"2021-12-18","APOAPSIS":"541.938"},{"CLASSIFICATION_TYPE":"U","ELEMENT_SET_NO":"999","MEAN_MOTION_DDOT":"0.0000000000000","RA_OF_ASC_NODE":"141.2820","ARG_OF_PERICENTER":"35.3523","OBJECT_NAME":"STARLINK-3287","GP_ID":"220663239","OBJECT_ID":"2021-125S","TLE_LINE2":"2 50172  53.2163 141.2820 0002729  35.3523 324.7649 15.08817329 58660","REV_AT_EPOCH":"5866","CENTER_NAME":"EARTH","REF_FRAME":"TEME","FILE":"3705029","PERIAPSIS":"537.927","EPHEMERIS_TYPE":"0","SEMIMAJOR_AXIS":"6917.950","MEAN_MOTION_DOT":"0.00006784","OBJECT_TYPE":"PAYLOAD","COUNTRY_CODE":"US","MEAN_MOTION":"15.08817329","SITE":"AFWTR","NORAD_CAT_ID":"50172","MEAN_ANOMALY":"324.7649","TIME_SYSTEM":"UTC","RCS_SIZE":"LARGE","EPOCH":"2022-12-16T19:41:57.100992","DECAY_DATE":null,"PERIOD":"95.439","TLE_LINE1":"1 50172U 21125S   22350.82079978  .00006784  00000-0  44418-3 0  9997","BSTAR":"0.00044418000000","ECCENTRICITY":"0.00027290","APOAPSIS":"541.703","LAUNCH_DATE":"2021-12-18","MEAN_ELEMENT_THEORY":"SGP4","INCLINATION":"53.2163"}];
